[{"OBJECT_NAME":"FENGYUN 1C DEB","OBJECT_ID":"1999-025FBZ","EPOCH":"2026-04-26T10:30:49.766400","MEAN_MOTION":14.21004639,"ECCENTRICITY":0.01043298,"INCLINATION":98.8082,"RA_OF_ASC_NODE":181.5625,"ARG_OF_PERICENTER":35.987,"MEAN_ANOMALY":324.8274,"EPHEMERIS_TYPE":0,"CLASSIFICATION_TYPE":"U","NORAD_CAT_ID":47101,"ELEMENT_SET_NO":999,"REV_AT_EPOCH":36572,"BSTAR":0.0029255573,"MEAN_MOTION_DOT":6.662e-5,"MEAN_MOTION_DDOT":0},{"OBJECT_NAME":"FENGYUN 1C DEB","OBJECT_ID":"1999-025FCA","EPOCH":"2026-04-27T01:56:29.100768","MEAN_MOTION":14.17804832,"ECCENTRICITY":0.0118597,"INCLINATION":98.4449,"RA_OF_ASC_NODE":53.9745,"ARG_OF_PERICENTER":21.7314,"MEAN_ANOMALY":353.5522,"EPHEMERIS_TYPE":0,"CLASSIFICATION_TYPE":"U","NORAD_CAT_ID":47102,"ELEMENT_SET_NO":999,"REV_AT_EPOCH":63858,"BSTAR":0.0011172,"MEAN_MOTION_DOT":2.402e-5,"MEAN_MOTION_DDOT":0},{"OBJECT_NAME":"FENGYUN 1C DEB","OBJECT_ID":"1999-025FCC","EPOCH":"2026-04-26T19:49:54.634656","MEAN_MOTION":14.19560641,"ECCENTRICITY":0.00397479,"INCLINATION":98.8887,"RA_OF_ASC_NODE":152.0369,"ARG_OF_PERICENTER":310.3871,"MEAN_ANOMALY":49.3838,"EPHEMERIS_TYPE":0,"CLASSIFICATION_TYPE":"U","NORAD_CAT_ID":47104,"ELEMENT_SET_NO":999,"REV_AT_EPOCH":64289,"BSTAR":0.00017053384,"MEAN_MOTION_DOT":3.17e-6,"MEAN_MOTION_DDOT":0},{"OBJECT_NAME":"FENGYUN 1C DEB","OBJECT_ID":"1999-025FCG","EPOCH":"2026-04-26T09:08:34.435968","MEAN_MOTION":14.10585297,"ECCENTRICITY":0.01315541,"INCLINATION":99.259,"RA_OF_ASC_NODE":86.6533,"ARG_OF_PERICENTER":83.02,"MEAN_ANOMALY":278.5912,"EPHEMERIS_TYPE":0,"CLASSIFICATION_TYPE":"U","NORAD_CAT_ID":48518,"ELEMENT_SET_NO":999,"REV_AT_EPOCH":62067,"BSTAR":0.0020746825,"MEAN_MOTION_DOT":3.967e-5,"MEAN_MOTION_DDOT":0}]
